{"type":"FeatureCollection","features":[{"type":"Feature","geometry":{"type":"Point","coordinates":[110.5143939,-7.3620146,0]},"properties":{"name":"terminal tingkir kota salatiga","styleUrl":"#icon-1532-F57C00-nodesc","icon-opacity":1,"icon-color":"#f57c00","icon-scale":1,"icon":"https://www.gstatic.com/mapspro/images/stock/503-wht-blank_maps.png"}},{"type":"Feature","geometry":{"type":"Point","coordinates":[110.4337109,-7.2451262,0]},"properties":{"name":"Terminal Bawen","styleUrl":"#icon-1532-F57C00-nodesc","icon-opacity":1,"icon-color":"#f57c00","icon-scale":1,"icon":"https://www.gstatic.com/mapspro/images/stock/503-wht-blank_maps.png"}},{"type":"Feature","geometry":{"type":"Point","coordinates":[110.74947,-7.51256,0]},"properties":{"name":"Bandara Adi Soemarmo","styleUrl":"#icon-1504-0288D1-nodesc","icon-opacity":1,"icon-color":"#0288d1","icon-scale":1,"icon":"https://www.gstatic.com/mapspro/images/stock/503-wht-blank_maps.png"}},{"type":"Feature","geometry":{"type":"Point","coordinates":[110.3750082,-6.966126,0]},"properties":{"name":"Bandar Udara Jenderal Ahmad Yani","styleUrl":"#icon-1504-0288D1-nodesc","icon-opacity":1,"icon-color":"#0288d1","icon-scale":1,"icon":"https://www.gstatic.com/mapspro/images/stock/503-wht-blank_maps.png"}},{"type":"Feature","geometry":{"type":"Point","coordinates":[110.4286916,-6.9644221,0]},"properties":{"name":"Stasiun Tawang Semarang","styleUrl":"#icon-1716-A52714-nodesc","icon-opacity":1,"icon-color":"#a52714","icon-scale":1,"icon":"https://www.gstatic.com/mapspro/images/stock/503-wht-blank_maps.png"}},{"type":"Feature","geometry":{"type":"Point","coordinates":[110.4146465,-6.9728709,0]},"properties":{"name":"Stasiun Poncol Semarang","styleUrl":"#icon-1716-A52714-nodesc","icon-opacity":1,"icon-color":"#a52714","icon-scale":1,"icon":"https://www.gstatic.com/mapspro/images/stock/503-wht-blank_maps.png"}},{"type":"Feature","geometry":{"type":"Point","coordinates":[110.8394511,-7.5621089,0]},"properties":{"name":"Stasiun Solo Jebres","styleUrl":"#icon-1716-A52714-nodesc","icon-opacity":1,"icon-color":"#a52714","icon-scale":1,"icon":"https://www.gstatic.com/mapspro/images/stock/503-wht-blank_maps.png"}},{"type":"Feature","geometry":{"type":"Point","coordinates":[110.8213794,-7.5570131,0]},"properties":{"name":"Solo Balapan","styleUrl":"#icon-1716-A52714-nodesc","icon-opacity":1,"icon-color":"#a52714","icon-scale":1,"icon":"https://www.gstatic.com/mapspro/images/stock/503-wht-blank_maps.png"}},{"type":"Feature","geometry":{"type":"Point","coordinates":[110.4987516,-7.3298133,0]},"properties":{"name":"Masjid Agung Darul Amal Kota Salatiga","styleUrl":"#icon-1671-FFEA00-nodesc","icon-opacity":1,"icon-color":"#ffea00","icon-scale":1,"icon":"https://www.gstatic.com/mapspro/images/stock/503-wht-blank_maps.png"}},{"type":"Feature","geometry":{"type":"Point","coordinates":[110.5015549,-7.3222191,0]},"properties":{"name":"Gereja Katolik Paroki Santo Paulus Miki, Salatiga","styleUrl":"#icon-1671-FFEA00-nodesc","icon-opacity":1,"icon-color":"#ffea00","icon-scale":1,"icon":"https://www.gstatic.com/mapspro/images/stock/503-wht-blank_maps.png"}},{"type":"Feature","geometry":{"type":"Point","coordinates":[110.4982133,-7.3205563,0]},"properties":{"name":"Gereja Kristen Jawa (GKJ) Salatiga","styleUrl":"#icon-1671-FFEA00-nodesc","icon-opacity":1,"icon-color":"#ffea00","icon-scale":1,"icon":"https://www.gstatic.com/mapspro/images/stock/503-wht-blank_maps.png"}},{"type":"Feature","geometry":{"type":"Point","coordinates":[110.487283,-7.3524385,0]},"properties":{"name":"Pura Adhya Dharma Salatiga ᬧᬸᬭᬵᬥ᭄ᬬᬥᬃᬫᬲᬮᬢᬶᬕ᭟","styleUrl":"#icon-1671-FFEA00-nodesc","icon-opacity":1,"icon-color":"#ffea00","icon-scale":1,"icon":"https://www.gstatic.com/mapspro/images/stock/503-wht-blank_maps.png"}},{"type":"Feature","geometry":{"type":"Point","coordinates":[110.4981002,-7.3561091,0]},"properties":{"name":"STI Vihāra Maggadhamma","styleUrl":"#icon-1671-FFEA00-nodesc","icon-opacity":1,"icon-color":"#ffea00","icon-scale":1,"icon":"https://www.gstatic.com/mapspro/images/stock/503-wht-blank_maps.png"}},{"type":"Feature","geometry":{"type":"Point","coordinates":[110.5043133,-7.3316657,0]},"properties":{"name":"Kelenteng TITD Hok Tek Bio","styleUrl":"#icon-1671-FFEA00-nodesc","icon-opacity":1,"icon-color":"#ffea00","icon-scale":1,"icon":"https://www.gstatic.com/mapspro/images/stock/503-wht-blank_maps.png"}},{"type":"Feature","geometry":{"type":"Point","coordinates":[110.4963659,-7.327692,0]},"properties":{"name":"RSUD Kota Salatiga - Ruang Operasi","styleUrl":"#icon-1624-0F9D58-nodesc","icon-opacity":1,"icon-color":"#0f9d58","icon-scale":1,"icon":"https://www.gstatic.com/mapspro/images/stock/503-wht-blank_maps.png"}},{"type":"Feature","geometry":{"type":"Point","coordinates":[110.5081943,-7.3386141,0]},"properties":{"name":"Rumah Sakit Puri Asih Salatiga","styleUrl":"#icon-1624-0F9D58-nodesc","icon-opacity":1,"icon-color":"#0f9d58","icon-scale":1,"icon":"https://www.gstatic.com/mapspro/images/stock/503-wht-blank_maps.png"}},{"type":"Feature","geometry":{"type":"Point","coordinates":[110.5134983,-7.3627153,0]},"properties":{"name":"RSI Tunas Harapan Salatiga","styleUrl":"#icon-1624-0F9D58-nodesc","icon-opacity":1,"icon-color":"#0f9d58","icon-scale":1,"icon":"https://www.gstatic.com/mapspro/images/stock/503-wht-blank_maps.png"}},{"type":"Feature","geometry":{"type":"Point","coordinates":[110.4890855,-7.3496583,0]},"properties":{"name":"Rumah Sakit Paru Dr. Ario Wirawan","styleUrl":"#icon-1624-0F9D58-nodesc","icon-opacity":1,"icon-color":"#0f9d58","icon-scale":1,"icon":"https://www.gstatic.com/mapspro/images/stock/503-wht-blank_maps.png"}},{"type":"Feature","geometry":{"type":"Point","coordinates":[110.4953701,-7.3308029,0]},"properties":{"name":"RSIA Hermina Mutiara Bunda Salatiga","styleUrl":"#icon-1624-0F9D58-nodesc","icon-opacity":1,"icon-color":"#0f9d58","icon-scale":1,"icon":"https://www.gstatic.com/mapspro/images/stock/503-wht-blank_maps.png"}},{"type":"Feature","geometry":{"type":"Point","coordinates":[110.5097979,-7.3432899,0]},"properties":{"name":"Luwes Swalayan Salatiga","styleUrl":"#icon-1684-9C27B0-nodesc","icon-opacity":1,"icon-color":"#9c27b0","icon-scale":1,"icon":"https://www.gstatic.com/mapspro/images/stock/503-wht-blank_maps.png"}},{"type":"Feature","geometry":{"type":"Point","coordinates":[110.5056794,-7.3250095,0]},"properties":{"name":"MALL RAMAYANA SALATIGA","styleUrl":"#icon-1684-9C27B0-nodesc","icon-opacity":1,"icon-color":"#9c27b0","icon-scale":1,"icon":"https://www.gstatic.com/mapspro/images/stock/503-wht-blank_maps.png"}},{"type":"Feature","geometry":{"type":"Point","coordinates":[110.5044301,-7.3281304,0]},"properties":{"name":"Toko Ada Baru Swalayan","styleUrl":"#icon-1684-9C27B0-nodesc","icon-opacity":1,"icon-color":"#9c27b0","icon-scale":1,"icon":"https://www.gstatic.com/mapspro/images/stock/503-wht-blank_maps.png"}},{"type":"Feature","geometry":{"type":"Point","coordinates":[110.5062143,-7.3353521,0]},"properties":{"name":"SUPERINDO Sudirman","styleUrl":"#icon-1684-9C27B0-nodesc","icon-opacity":1,"icon-color":"#9c27b0","icon-scale":1,"icon":"https://www.gstatic.com/mapspro/images/stock/503-wht-blank_maps.png"}},{"type":"Feature","geometry":{"type":"Point","coordinates":[110.5072574,-7.3453428,0]},"properties":{"name":"Kayu Arum Resort","styleUrl":"#icon-1602-7CB342-nodesc","icon-opacity":1,"icon-color":"#7cb342","icon-scale":1,"icon":"https://www.gstatic.com/mapspro/images/stock/503-wht-blank_maps.png"}}]}